CCSDS_OMM_VERS = 2.0
CREATION_DATE  = 
ORIGINATOR     = 

OBJECT_NAME    = 1998-067XK
OBJECT_ID      = 1998-067XK
CENTER_NAME    = EARTH
REF_FRAME      = TEME
TIME_SYSTEM    = UTC
MEAN_ELEMENT_THEORY = SGP/SGP4

EPOCH          = 2026-01-27T00:28:17.986368
MEAN_MOTION    = 15.78430092
ECCENTRICITY   = .00041181
INCLINATION    = 51.6246
RA_OF_ASC_NODE = 265.6269
ARG_OF_PERICENTER = 159.2961
MEAN_ANOMALY   = 200.8207

EPHEMERIS_TYPE = 0
CLASSIFICATION_TYPE = U
NORAD_CAT_ID   = 65731
ELEMENT_SET_NO = 999
REV_AT_EPOCH   = 2026
BSTAR          = .12168113E-2
MEAN_MOTION_DOT = .220266E-2
MEAN_MOTION_DDOT = 0

CCSDS_OMM_VERS = 2.0
CREATION_DATE  = 
ORIGINATOR     = 

OBJECT_NAME    = RSP-03
OBJECT_ID      = 1998-067XL
CENTER_NAME    = EARTH
REF_FRAME      = TEME
TIME_SYSTEM    = UTC
MEAN_ELEMENT_THEORY = SGP/SGP4

EPOCH          = 2026-01-27T16:38:06.525312
MEAN_MOTION    = 15.88612119
ECCENTRICITY   = .0005449
INCLINATION    = 51.6204
RA_OF_ASC_NODE = 259.5751
ARG_OF_PERICENTER = 183.7564
MEAN_ANOMALY   = 176.3400

EPHEMERIS_TYPE = 0
CLASSIFICATION_TYPE = U
NORAD_CAT_ID   = 65732
ELEMENT_SET_NO = 999
REV_AT_EPOCH   = 2041
BSTAR          = .14093E-2
MEAN_MOTION_DOT = .423395E-2
MEAN_MOTION_DDOT = 0

CCSDS_OMM_VERS = 2.0
CREATION_DATE  = 
ORIGINATOR     = 

OBJECT_NAME    = YOTSUBA-KULOVER
OBJECT_ID      = 1998-067XN
CENTER_NAME    = EARTH
REF_FRAME      = TEME
TIME_SYSTEM    = UTC
MEAN_ELEMENT_THEORY = SGP/SGP4

EPOCH          = 2026-01-26T18:51:00.802080
MEAN_MOTION    = 15.67633382
ECCENTRICITY   = .00044336
INCLINATION    = 51.6263
RA_OF_ASC_NODE = 272.3380
ARG_OF_PERICENTER = 169.0329
MEAN_ANOMALY   = 191.0765

EPHEMERIS_TYPE = 0
CLASSIFICATION_TYPE = U
NORAD_CAT_ID   = 65941
ELEMENT_SET_NO = 999
REV_AT_EPOCH   = 1690
BSTAR          = .11076402E-2
MEAN_MOTION_DOT = .124754E-2
MEAN_MOTION_DDOT = 0

CCSDS_OMM_VERS = 2.0
CREATION_DATE  = 
ORIGINATOR     = 

OBJECT_NAME    = BOTAN
OBJECT_ID      = 1998-067XP
CENTER_NAME    = EARTH
REF_FRAME      = TEME
TIME_SYSTEM    = UTC
MEAN_ELEMENT_THEORY = SGP/SGP4

EPOCH          = 2026-01-26T16:32:33.197568
MEAN_MOTION    = 15.76971767
ECCENTRICITY   = .00052753
INCLINATION    = 51.6210
RA_OF_ASC_NODE = 270.1730
ARG_OF_PERICENTER = 178.3633
MEAN_ANOMALY   = 181.7385

EPHEMERIS_TYPE = 0
CLASSIFICATION_TYPE = U
NORAD_CAT_ID   = 65942
ELEMENT_SET_NO = 999
REV_AT_EPOCH   = 1692
BSTAR          = .15443134E-2
MEAN_MOTION_DOT = .263485E-2
MEAN_MOTION_DDOT = 0

CCSDS_OMM_VERS = 2.0
CREATION_DATE  = 
ORIGINATOR     = 

OBJECT_NAME    = E-KAGAKU-1
OBJECT_ID      = 1998-067XQ
CENTER_NAME    = EARTH
REF_FRAME      = TEME
TIME_SYSTEM    = UTC
MEAN_ELEMENT_THEORY = SGP/SGP4

EPOCH          = 2026-01-26T17:19:26.378112
MEAN_MOTION    = 15.67561224
ECCENTRICITY   = .00031585
INCLINATION    = 51.6283
RA_OF_ASC_NODE = 272.6721
ARG_OF_PERICENTER = 176.1816
MEAN_ANOMALY   = 183.9205

EPHEMERIS_TYPE = 0
CLASSIFICATION_TYPE = U
NORAD_CAT_ID   = 65943
ELEMENT_SET_NO = 999
REV_AT_EPOCH   = 1689
BSTAR          = .10682373E-2
MEAN_MOTION_DOT = .119845E-2
MEAN_MOTION_DDOT = 0

CCSDS_OMM_VERS = 2.0
CREATION_DATE  = 
ORIGINATOR     = 

OBJECT_NAME    = HRC MONOBLOCK CAMERA
OBJECT_ID      = 1998-067XR
CENTER_NAME    = EARTH
REF_FRAME      = TEME
TIME_SYSTEM    = UTC
MEAN_ELEMENT_THEORY = SGP/SGP4

EPOCH          = 2026-01-27T16:52:15.334464
MEAN_MOTION    = 15.57999056
ECCENTRICITY   = .0000451
INCLINATION    = 51.6293
RA_OF_ASC_NODE = 271.7201
ARG_OF_PERICENTER = 55.4630
MEAN_ANOMALY   = 304.6405

EPHEMERIS_TYPE = 0
CLASSIFICATION_TYPE = U
NORAD_CAT_ID   = 66052
ELEMENT_SET_NO = 999
REV_AT_EPOCH   = 1599
BSTAR          = .70948E-3
MEAN_MOTION_DOT = .54071E-3
MEAN_MOTION_DDOT = 0

CCSDS_OMM_VERS = 2.0
CREATION_DATE  = 
ORIGINATOR     = 

OBJECT_NAME    = HTV-X1
OBJECT_ID      = 2025-241A
CENTER_NAME    = EARTH
REF_FRAME      = TEME
TIME_SYSTEM    = UTC
MEAN_ELEMENT_THEORY = SGP/SGP4

EPOCH          = 2026-01-27T03:26:19.576896
MEAN_MOTION    = 15.48216781
ECCENTRICITY   = .00111495
INCLINATION    = 51.6321
RA_OF_ASC_NODE = 277.7306
ARG_OF_PERICENTER = 34.3982
MEAN_ANOMALY   = 325.7726

EPHEMERIS_TYPE = 0
CLASSIFICATION_TYPE = U
NORAD_CAT_ID   = 66174
ELEMENT_SET_NO = 999
REV_AT_EPOCH   = 51
BSTAR          = .21755997E-3
MEAN_MOTION_DOT = .11252E-3
MEAN_MOTION_DDOT = 0

CCSDS_OMM_VERS = 2.0
CREATION_DATE  = 
ORIGINATOR     = 

OBJECT_NAME    = SZ-21 MODULE
OBJECT_ID      = 2025-246C
CENTER_NAME    = EARTH
REF_FRAME      = TEME
TIME_SYSTEM    = UTC
MEAN_ELEMENT_THEORY = SGP/SGP4

EPOCH          = 2026-01-27T13:59:02.389920
MEAN_MOTION    = 15.65450528
ECCENTRICITY   = .0003262
INCLINATION    = 41.4754
RA_OF_ASC_NODE = 95.8080
ARG_OF_PERICENTER = 246.4687
MEAN_ANOMALY   = 113.5811

EPHEMERIS_TYPE = 0
CLASSIFICATION_TYPE = U
NORAD_CAT_ID   = 66515
ELEMENT_SET_NO = 999
REV_AT_EPOCH   = 1162
BSTAR          = .37527E-3
MEAN_MOTION_DOT = .38475E-3
MEAN_MOTION_DDOT = 0

CCSDS_OMM_VERS = 2.0
CREATION_DATE  = 
ORIGINATOR     = 

OBJECT_NAME    = SHENZHOU-22
OBJECT_ID      = 2025-272A
CENTER_NAME    = EARTH
REF_FRAME      = TEME
TIME_SYSTEM    = UTC
MEAN_ELEMENT_THEORY = SGP/SGP4

EPOCH          = 2026-01-27T13:09:48.722976
MEAN_MOTION    = 15.61179270
ECCENTRICITY   = .00096134
INCLINATION    = 41.4670
RA_OF_ASC_NODE = 98.2014
ARG_OF_PERICENTER = 15.4420
MEAN_ANOMALY   = 344.6711

EPHEMERIS_TYPE = 0
CLASSIFICATION_TYPE = U
NORAD_CAT_ID   = 66645
ELEMENT_SET_NO = 999
REV_AT_EPOCH   = 26764
BSTAR          = .31456769E-3
MEAN_MOTION_DOT = .27185E-3
MEAN_MOTION_DDOT = 0

CCSDS_OMM_VERS = 2.0
CREATION_DATE  = 
ORIGINATOR     = 

OBJECT_NAME    = SOYUZ-MS 28
OBJECT_ID      = 2025-275A
CENTER_NAME    = EARTH
REF_FRAME      = TEME
TIME_SYSTEM    = UTC
MEAN_ELEMENT_THEORY = SGP/SGP4

EPOCH          = 2026-01-27T15:49:54.883200
MEAN_MOTION    = 15.48229162
ECCENTRICITY   = .0011156
INCLINATION    = 51.6319
RA_OF_ASC_NODE = 275.1786
ARG_OF_PERICENTER = 36.3768
MEAN_ANOMALY   = 323.7976

EPHEMERIS_TYPE = 0
CLASSIFICATION_TYPE = U
NORAD_CAT_ID   = 66664
ELEMENT_SET_NO = 999
REV_AT_EPOCH   = 54997
BSTAR          = .21554E-3
MEAN_MOTION_DOT = .11148E-3
MEAN_MOTION_DDOT = 0

CCSDS_OMM_VERS = 2.0
CREATION_DATE  = 
ORIGINATOR     = 

OBJECT_NAME    = DUPLEX
OBJECT_ID      = 1998-067XS
CENTER_NAME    = EARTH
REF_FRAME      = TEME
TIME_SYSTEM    = UTC
MEAN_ELEMENT_THEORY = SGP/SGP4

EPOCH          = 2026-01-27T16:57:50.120640
MEAN_MOTION    = 15.53329312
ECCENTRICITY   = .0001858
INCLINATION    = 51.6305
RA_OF_ASC_NODE = 273.9941
ARG_OF_PERICENTER = 65.0892
MEAN_ANOMALY   = 295.0291

EPHEMERIS_TYPE = 0
CLASSIFICATION_TYPE = U
NORAD_CAT_ID   = 66906
ELEMENT_SET_NO = 999
REV_AT_EPOCH   = 875
BSTAR          = .50625E-3
MEAN_MOTION_DOT = .3221E-3
MEAN_MOTION_DDOT = 0

CCSDS_OMM_VERS = 2.0
CREATION_DATE  = 
ORIGINATOR     = 

OBJECT_NAME    = 1998-067XT
OBJECT_ID      = 1998-067XT
CENTER_NAME    = EARTH
REF_FRAME      = TEME
TIME_SYSTEM    = UTC
MEAN_ELEMENT_THEORY = SGP/SGP4

EPOCH          = 2026-01-27T16:20:53.474208
MEAN_MOTION    = 15.59016939
ECCENTRICITY   = .0002962
INCLINATION    = 51.6278
RA_OF_ASC_NODE = 273.0721
ARG_OF_PERICENTER = 136.2829
MEAN_ANOMALY   = 223.8399

EPHEMERIS_TYPE = 0
CLASSIFICATION_TYPE = U
NORAD_CAT_ID   = 66907
ELEMENT_SET_NO = 999
REV_AT_EPOCH   = 876
BSTAR          = .13928E-2
MEAN_MOTION_DOT = .111639E-2
MEAN_MOTION_DDOT = 0

